ONEWEB-0685             
1 54679U 22166AP  26132.28826713  .00000077  00000+0  15475-3 0  9997
2 54679  87.9238 251.1262 0002169  96.3619 263.7763 13.21818196166671
ONEWEB-0712             
1 54680U 22166AQ  26132.26544566  .00000071  00000+0  15326-3 0  9999
2 54680  87.9100 235.9061 0002176  89.2648 270.8732 13.16595272167339
ONEWEB-0714             
1 54681U 22166AR  26132.29318025  .00000076  00000+0  15274-3 0  9999
2 54681  87.9239 251.1218 0002086  94.6897 265.4475 13.21826328166791
ONEWEB-0532             
1 55140U 23004A   26132.19147353  .00000093  00000+0  20725-3 0  9991
2 55140  87.9168  13.0209 0001767  93.9703 266.1630 13.17650236162842
ONEWEB-0533             
1 55141U 23004B   26132.16851934  .00000228  00000+0  59729-3 0  9992
2 55141  87.8977 357.8312 0001932  84.2371 275.8977 13.12443425163333
ONEWEB-0541             
1 55142U 23004C   26132.24652872  .00000444  00000+0  12173-2 0  9993
2 55142  87.8924  28.2035 0001659  81.2713 278.8603 13.11414140161237
ONEWEB-0543             
1 55143U 23004D   26132.27428645  .00000092  00000+0  20148-3 0  9997
2 55143  87.9172 342.6186 0001836  78.1665 281.9673 13.18687374164965
ONEWEB-0544             
1 55144U 23004E   26132.11577723  .00000044  00000+0  79307-4 0  9992
2 55144  87.9171 342.6500 0001638  80.3416 279.7901 13.18684790164940
ONEWEB-0560             
1 55145U 23004F   26132.10903227  .00000093  00000+0  20428-3 0  9997
2 55145  87.9172 342.6404 0001673  76.8590 283.2729 13.18684506164951
ONEWEB-0565             
1 55146U 23004G   26132.10228448  .00000022  00000+0  22233-4 0  9992
2 55146  87.9162 342.6730 0001382  89.5079 270.6211 13.18685152164946
ONEWEB-0567             
1 55147U 23004H   26132.09554051  .00000086  00000+0  18437-3 0  9993
2 55147  87.9171 342.6554 0001418  83.5461 276.5833 13.18684941164940
ONEWEB-0569             
1 55148U 23004J   26132.28082599  .00000075  00000+0  17181-3 0  9991
2 55148  87.8953 327.3713 0001225  59.0875 301.0374 13.13471515165466
ONEWEB-0570             
1 55149U 23004K   26132.08713826  .00000100  00000+0  22133-3 0  9996
2 55149  87.9171 342.6553 0001703  99.9541 260.1783 13.18686778164930
ONEWEB-0571             
1 55150U 23004L   26132.08039190  .00000038  00000+0  63316-4 0  9992
2 55150  87.9171 342.6557 0000601  72.2111 287.9086 13.18687097164948
ONEWEB-0572             
1 55151U 23004M   26132.22185054 -.00000045  00000+0 -15009-3 0  9995
2 55151  87.9167  13.0156 0001585  82.7688 277.3623 13.17650095162748
ONEWEB-0573             
1 55152U 23004N   26132.07363539  .00000147  00000+0  34043-3 0  9995
2 55152  87.9173 342.6581 0000915  85.2961 274.8276 13.18686096164937
