[{"OBJECT_NAME":"ONEWEB-0685","OBJECT_ID":"2022-166AP","EPOCH":"2026-05-12T06:55:06.280032","MEAN_MOTION":13.21818196,"ECCENTRICITY":0.0002169,"INCLINATION":87.9238,"RA_OF_ASC_NODE":251.1262,"ARG_OF_PERICENTER":96.3619,"MEAN_ANOMALY":263.7763,"EPHEMERIS_TYPE":0,"CLASSIFICATION_TYPE":"U","NORAD_CAT_ID":54679,"ELEMENT_SET_NO":999,"REV_AT_EPOCH":16667,"BSTAR":0.00015475,"MEAN_MOTION_DOT":7.7e-07,"MEAN_MOTION_DDOT":0.0},{"OBJECT_NAME":"ONEWEB-0712","OBJECT_ID":"2022-166AQ","EPOCH":"2026-05-12T06:22:14.505024","MEAN_MOTION":13.16595272,"ECCENTRICITY":0.0002176,"INCLINATION":87.91,"RA_OF_ASC_NODE":235.9061,"ARG_OF_PERICENTER":89.2648,"MEAN_ANOMALY":270.8732,"EPHEMERIS_TYPE":0,"CLASSIFICATION_TYPE":"U","NORAD_CAT_ID":54680,"ELEMENT_SET_NO":999,"REV_AT_EPOCH":16733,"BSTAR":0.00015326,"MEAN_MOTION_DOT":7.1e-07,"MEAN_MOTION_DDOT":0.0},{"OBJECT_NAME":"ONEWEB-0714","OBJECT_ID":"2022-166AR","EPOCH":"2026-05-12T07:02:10.773600","MEAN_MOTION":13.21826328,"ECCENTRICITY":0.0002086,"INCLINATION":87.9239,"RA_OF_ASC_NODE":251.1218,"ARG_OF_PERICENTER":94.6897,"MEAN_ANOMALY":265.4475,"EPHEMERIS_TYPE":0,"CLASSIFICATION_TYPE":"U","NORAD_CAT_ID":54681,"ELEMENT_SET_NO":999,"REV_AT_EPOCH":16679,"BSTAR":0.00015273999999999998,"MEAN_MOTION_DOT":7.6e-07,"MEAN_MOTION_DDOT":0.0},{"OBJECT_NAME":"ONEWEB-0532","OBJECT_ID":"2023-004A","EPOCH":"2026-05-12T04:35:43.312992","MEAN_MOTION":13.17650236,"ECCENTRICITY":0.0001767,"INCLINATION":87.9168,"RA_OF_ASC_NODE":13.0209,"ARG_OF_PERICENTER":93.9703,"MEAN_ANOMALY":266.163,"EPHEMERIS_TYPE":0,"CLASSIFICATION_TYPE":"U","NORAD_CAT_ID":55140,"ELEMENT_SET_NO":999,"REV_AT_EPOCH":16284,"BSTAR":0.00020725,"MEAN_MOTION_DOT":9.3e-07,"MEAN_MOTION_DDOT":0.0},{"OBJECT_NAME":"ONEWEB-0533","OBJECT_ID":"2023-004B","EPOCH":"2026-05-12T04:02:40.070976","MEAN_MOTION":13.12443425,"ECCENTRICITY":0.0001932,"INCLINATION":87.8977,"RA_OF_ASC_NODE":357.8312,"ARG_OF_PERICENTER":84.2371,"MEAN_ANOMALY":275.8977,"EPHEMERIS_TYPE":0,"CLASSIFICATION_TYPE":"U","NORAD_CAT_ID":55141,"ELEMENT_SET_NO":999,"REV_AT_EPOCH":16333,"BSTAR":0.00059729,"MEAN_MOTION_DOT":2.28e-06,"MEAN_MOTION_DDOT":0.0},{"OBJECT_NAME":"ONEWEB-0541","OBJECT_ID":"2023-004C","EPOCH":"2026-05-12T05:55:00.081408","MEAN_MOTION":13.1141414,"ECCENTRICITY":0.0001659,"INCLINATION":87.8924,"RA_OF_ASC_NODE":28.2035,"ARG_OF_PERICENTER":81.2713,"MEAN_ANOMALY":278.8603,"EPHEMERIS_TYPE":0,"CLASSIFICATION_TYPE":"U","NORAD_CAT_ID":55142,"ELEMENT_SET_NO":999,"REV_AT_EPOCH":16123,"BSTAR":0.0012173000000000002,"MEAN_MOTION_DOT":4.44e-06,"MEAN_MOTION_DDOT":0.0},{"OBJECT_NAME":"ONEWEB-0543","OBJECT_ID":"2023-004D","EPOCH":"2026-05-12T06:34:58.349280","MEAN_MOTION":13.18687374,"ECCENTRICITY":0.0001836,"INCLINATION":87.9172,"RA_OF_ASC_NODE":342.6186,"ARG_OF_PERICENTER":78.1665,"MEAN_ANOMALY":281.9673,"EPHEMERIS_TYPE":0,"CLASSIFICATION_TYPE":"U","NORAD_CAT_ID":55143,"ELEMENT_SET_NO":999,"REV_AT_EPOCH":16496,"BSTAR":0.00020148,"MEAN_MOTION_DOT":9.2e-07,"MEAN_MOTION_DDOT":0.0},{"OBJECT_NAME":"ONEWEB-0544","OBJECT_ID":"2023-004E","EPOCH":"2026-05-12T02:46:43.152672","MEAN_MOTION":13.1868479,"ECCENTRICITY":0.0001638,"INCLINATION":87.9171,"RA_OF_ASC_NODE":342.65,"ARG_OF_PERICENTER":80.3416,"MEAN_ANOMALY":279.7901,"EPHEMERIS_TYPE":0,"CLASSIFICATION_TYPE":"U","NORAD_CAT_ID":55144,"ELEMENT_SET_NO":999,"REV_AT_EPOCH":16494,"BSTAR":7.9307e-05,"MEAN_MOTION_DOT":4.4e-07,"MEAN_MOTION_DDOT":0.0},{"OBJECT_NAME":"ONEWEB-0560","OBJECT_ID":"2023-004F","EPOCH":"2026-05-12T02:37:00.388128","MEAN_MOTION":13.18684506,"ECCENTRICITY":0.0001673,"INCLINATION":87.9172,"RA_OF_ASC_NODE":342.6404,"ARG_OF_PERICENTER":76.859,"MEAN_ANOMALY":283.2729,"EPHEMERIS_TYPE":0,"CLASSIFICATION_TYPE":"U","NORAD_CAT_ID":55145,"ELEMENT_SET_NO":999,"REV_AT_EPOCH":16495,"BSTAR":0.00020428,"MEAN_MOTION_DOT":9.3e-07,"MEAN_MOTION_DDOT":0.0},{"OBJECT_NAME":"ONEWEB-0565","OBJECT_ID":"2023-004G","EPOCH":"2026-05-12T02:27:17.379072","MEAN_MOTION":13.18685152,"ECCENTRICITY":0.0001382,"INCLINATION":87.9162,"RA_OF_ASC_NODE":342.673,"ARG_OF_PERICENTER":89.5079,"MEAN_ANOMALY":270.6211,"EPHEMERIS_TYPE":0,"CLASSIFICATION_TYPE":"U","NORAD_CAT_ID":55146,"ELEMENT_SET_NO":999,"REV_AT_EPOCH":16494,"BSTAR":2.2233000000000002e-05,"MEAN_MOTION_DOT":2.2e-07,"MEAN_MOTION_DDOT":0.0},{"OBJECT_NAME":"ONEWEB-0567","OBJECT_ID":"2023-004H","EPOCH":"2026-05-12T02:17:34.700064","MEAN_MOTION":13.18684941,"ECCENTRICITY":0.0001418,"INCLINATION":87.9171,"RA_OF_ASC_NODE":342.6554,"ARG_OF_PERICENTER":83.5461,"MEAN_ANOMALY":276.5833,"EPHEMERIS_TYPE":0,"CLASSIFICATION_TYPE":"U","NORAD_CAT_ID":55147,"ELEMENT_SET_NO":999,"REV_AT_EPOCH":16494,"BSTAR":0.00018437,"MEAN_MOTION_DOT":8.6e-07,"MEAN_MOTION_DDOT":0.0},{"OBJECT_NAME":"ONEWEB-0569","OBJECT_ID":"2023-004J","EPOCH":"2026-05-12T06:44:23.365536","MEAN_MOTION":13.13471515,"ECCENTRICITY":0.0001225,"INCLINATION":87.8953,"RA_OF_ASC_NODE":327.3713,"ARG_OF_PERICENTER":59.0875,"MEAN_ANOMALY":301.0374,"EPHEMERIS_TYPE":0,"CLASSIFICATION_TYPE":"U","NORAD_CAT_ID":55148,"ELEMENT_SET_NO":999,"REV_AT_EPOCH":16546,"BSTAR":0.00017181,"MEAN_MOTION_DOT":7.5e-07,"MEAN_MOTION_DDOT":0.0},{"OBJECT_NAME":"ONEWEB-0570","OBJECT_ID":"2023-004K","EPOCH":"2026-05-12T02:05:28.745664","MEAN_MOTION":13.18686778,"ECCENTRICITY":0.0001703,"INCLINATION":87.9171,"RA_OF_ASC_NODE":342.6553,"ARG_OF_PERICENTER":99.9541,"MEAN_ANOMALY":260.1783,"EPHEMERIS_TYPE":0,"CLASSIFICATION_TYPE":"U","NORAD_CAT_ID":55149,"ELEMENT_SET_NO":999,"REV_AT_EPOCH":16493,"BSTAR":0.00022133,"MEAN_MOTION_DOT":1e-06,"MEAN_MOTION_DDOT":0.0},{"OBJECT_NAME":"ONEWEB-0571","OBJECT_ID":"2023-004L","EPOCH":"2026-05-12T01:55:45.860160","MEAN_MOTION":13.18687097,"ECCENTRICITY":6.01e-05,"INCLINATION":87.9171,"RA_OF_ASC_NODE":342.6557,"ARG_OF_PERICENTER":72.2111,"MEAN_ANOMALY":287.9086,"EPHEMERIS_TYPE":0,"CLASSIFICATION_TYPE":"U","NORAD_CAT_ID":55150,"ELEMENT_SET_NO":999,"REV_AT_EPOCH":16494,"BSTAR":6.3316e-05,"MEAN_MOTION_DOT":3.8e-07,"MEAN_MOTION_DDOT":0.0},{"OBJECT_NAME":"ONEWEB-0572","OBJECT_ID":"2023-004M","EPOCH":"2026-05-12T05:19:27.886656","MEAN_MOTION":13.17650095,"ECCENTRICITY":0.0001585,"INCLINATION":87.9167,"RA_OF_ASC_NODE":13.0156,"ARG_OF_PERICENTER":82.7688,"MEAN_ANOMALY":277.3623,"EPHEMERIS_TYPE":0,"CLASSIFICATION_TYPE":"U","NORAD_CAT_ID":55151,"ELEMENT_SET_NO":999,"REV_AT_EPOCH":16274,"BSTAR":-0.00015009,"MEAN_MOTION_DOT":-4.5e-07,"MEAN_MOTION_DDOT":0.0},{"OBJECT_NAME":"ONEWEB-0573","OBJECT_ID":"2023-004N","EPOCH":"2026-05-12T01:46:02.097696","MEAN_MOTION":13.18686096,"ECCENTRICITY":9.15e-05,"INCLINATION":87.9173,"RA_OF_ASC_NODE":342.6581,"ARG_OF_PERICENTER":85.2961,"MEAN_ANOMALY":274.8276,"EPHEMERIS_TYPE":0,"CLASSIFICATION_TYPE":"U","NORAD_CAT_ID":55152,"ELEMENT_SET_NO":999,"REV_AT_EPOCH":16493,"BSTAR":0.00034043,"MEAN_MOTION_DOT":1.47e-06,"MEAN_MOTION_DDOT":0.0}]